[{"OBJECT_NAME":"STARLINK-4280","OBJECT_ID":"2022-083AY","EPOCH":"2026-03-09T22:44:59.176896","MEAN_MOTION":15.088384,"ECCENTRICITY":0.00012965,"INCLINATION":53.218,"RA_OF_ASC_NODE":162.9621,"ARG_OF_PERICENTER":94.9137,"MEAN_ANOMALY":265.2003,"EPHEMERIS_TYPE":0,"CLASSIFICATION_TYPE":"U","NORAD_CAT_ID":53178,"ELEMENT_SET_NO":999,"REV_AT_EPOCH":20138,"BSTAR":2.4923659e-5,"MEAN_MOTION_DOT":1.09e-6,"MEAN_MOTION_DDOT":0},{"OBJECT_NAME":"CZ-6A DEB","OBJECT_ID":"2022-151KB","EPOCH":"2026-03-09T19:20:41.637408","MEAN_MOTION":14.94061736,"ECCENTRICITY":0.0071589,"INCLINATION":98.7004,"RA_OF_ASC_NODE":166.2159,"ARG_OF_PERICENTER":166.3306,"MEAN_ANOMALY":193.9872,"EPHEMERIS_TYPE":0,"CLASSIFICATION_TYPE":"U","NORAD_CAT_ID":54523,"ELEMENT_SET_NO":999,"REV_AT_EPOCH":17710,"BSTAR":0.0044467837,"MEAN_MOTION_DOT":0.00050189,"MEAN_MOTION_DDOT":0}]
